NORAD_CAT_ID,OBJECT_NAME,OBJECT_TYPE,EPOCH,MEAN_MOTION,ECCENTRICITY,INCLINATION,RA_OF_ASC_NODE,ARG_OF_PERICENTER,MEAN_ANOMALY,BSTAR,MEAN_MOTION_DOT,MEAN_MOTION_DDOT,TLE_LINE0,TLE_LINE1,TLE_LINE2,SEMIMAJOR_AXIS,PERIOD,APOGEE,PERIGEE,DECAYED
52375.0,STARLINK-3785,PAYLOAD,2024-07-04 21:40:14,15.08835541,0.0001308,53.2164,60.0274,88.6683,271.4459,0.00010421,1.371e-05,0.0,0 STARLINK-3785,1 52375U 22045AW  24186.90295005  .00001371  00000-0  10421-3 0  9999,2 52375  53.2164  60.0274 0001308  88.6683 271.4459 15.08835541123418,6917.894,95.438,540.664,538.854,0.0
52375.0,STARLINK-3785,PAYLOAD,2024-07-05 08:47:55,15.08854328,0.0001196,53.2168,57.9456,87.6883,272.4246,0.00025314,3.745e-05,0.0,0 STARLINK-3785,1 52375U 22045AW  24187.36661954  .00003745  00000-0  25314-3 0  9994,2 52375  53.2168  57.9456 0001196  87.6883 272.4246 15.08854328123481,6917.837,95.437,540.529,538.874,0.0
52375.0,STARLINK-3785,PAYLOAD,2024-07-05 21:31:01,15.08838189,9.86e-05,53.2167,55.5649,101.2896,258.8206,8.9422e-05,1.136e-05,0.0,0 STARLINK-3785,1 52375U 22045AW  24187.89654788  .00001136  00000-0  89422-4 0  9992,2 52375  53.2167  55.5649 0000986 101.2896 258.8206 15.08838189123561,6917.886,95.438,540.433,539.069,0.0
52375.0,STARLINK-3785,PAYLOAD,2024-07-06 08:38:43,15.08849978,0.0001142,53.2155,53.4835,103.2519,256.8601,0.00031185,4.68e-05,0.0,0 STARLINK-3785,1 52375U 22045AW  24188.36022298  .00004680  00000-0  31185-3 0  9999,2 52375  53.2155  53.4835 0001142 103.2519 256.8601 15.08849978123634,6917.85,95.437,540.505,538.925,0.0
52375.0,STARLINK-3785,PAYLOAD,2024-07-06 15:00:16,15.08837832,0.0001815,53.2178,52.2982,75.9577,284.1617,-8.5547e-05,-1.649e-05,0.0,0 STARLINK-3785,1 52375U 22045AW  24188.62518980 -.00001649  00000-0 -85547-4 0  9992,2 52375  53.2178  52.2982 0001815  75.9577 284.1617 15.08837832123676,6917.887,95.438,541.008,538.496,0.0
52375.0,STARLINK-3785,PAYLOAD,2024-07-06 21:21:48,15.08837146,0.000132,53.216,51.1039,103.0463,257.0676,3.0165e-05,1.92e-06,0.0,0 STARLINK-3785,1 52375U 22045AW  24188.89014784  .00000192  00000-0  30165-4 0  9990,2 52375  53.2160  51.1039 0001320 103.0463 257.0676 15.08837146123713,6917.889,95.438,540.667,538.841,0.0
52375.0,STARLINK-3785,PAYLOAD,2024-07-07 00:32:35,15.08839303,0.0001367,53.2166,50.5094,101.862,258.2525,0.00010859,1.441e-05,0.0,0 STARLINK-3785,1 52375U 22045AW  24189.02262800  .00001441  00000-0  10859-3 0  9995,2 52375  53.2166  50.5094 0001367 101.8620 258.2525 15.08839303123730,6917.883,95.438,540.693,538.802,0.0
52375.0,STARLINK-3785,PAYLOAD,2024-07-07 21:12:35,15.08842115,0.0001415,53.218,46.6438,101.822,258.2931,0.0001917,2.764e-05,0.0,0 STARLINK-3785,1 52375U 22045AW  24189.88374961  .00002764  00000-0  19170-3 0  9995,2 52375  53.2180  46.6438 0001415 101.8220 258.2931 15.08842115123864,6917.874,95.437,540.718,538.76,0.0
52375.0,STARLINK-3785,PAYLOAD,2024-07-08 21:03:22,15.0884463,0.0001277,53.2176,42.1841,95.9089,264.2049,0.00021413,3.122e-05,0.0,0 STARLINK-3785,1 52375U 22045AW  24190.87734899  .00003122  00000-0  21413-3 0  9998,2 52375  53.2176  42.1841 0001277  95.9089 264.2049 15.08844630124019,6917.866,95.437,540.615,538.848,0.0
52375.0,STARLINK-3785,PAYLOAD,2024-07-09 14:32:37,15.0884125,0.0001811,53.2177,38.9181,106.6602,253.4589,4.8413e-05,4.82e-06,0.0,0 STARLINK-3785,1 52375U 22045AW  24191.60598936  .00000482  00000-0  48413-4 0  9996,2 52375  53.2177  38.9181 0001811 106.6602 253.4589 15.08841250124121,6917.877,95.437,540.994,538.489,0.0
52375.0,STARLINK-3785,PAYLOAD,2024-07-09 19:18:47,15.08834963,0.0001305,53.2172,38.0218,99.3769,260.7371,-2.6509e-05,-7.1e-06,0.0,0 STARLINK-3785,1 52375U 22045AW  24191.80471259 -.00000710  00000-0 -26509-4 0  9994,2 52375  53.2172  38.0218 0001305  99.3769 260.7371 15.08834963124154,6917.896,95.438,540.664,538.858,0.0
52375.0,STARLINK-3785,PAYLOAD,2024-07-10 12:48:01,15.08838077,0.0001383,53.2179,34.7529,104.5608,255.5537,5.0639e-05,5.18e-06,0.0,0 STARLINK-3785,1 52375U 22045AW  24192.53335121  .00000518  00000-0  50639-4 0  9997,2 52375  53.2179  34.7529 0001383 104.5608 255.5537 15.08838077124264,6917.886,95.438,540.708,538.795,0.0
52375.0,STARLINK-3785,PAYLOAD,2024-07-10 20:44:57,15.08834033,0.0001256,53.2181,33.266,103.7186,256.3946,8.8692e-06,-1.47e-06,0.0,0 STARLINK-3785,1 52375U 22045AW  24192.86455539 -.00000147  00000-0  88692-5 0  9999,2 52375  53.2181  33.2660 0001256 103.7186 256.3946 15.08834033124315,6917.899,95.438,540.633,538.895,0.0
52375.0,STARLINK-3785,PAYLOAD,2024-07-10 23:55:43,15.08840295,0.0001217,53.2172,32.6686,89.4543,270.6589,7.4425e-05,8.97e-06,0.0,0 STARLINK-3785,1 52375U 22045AW  24192.99703201  .00000897  00000-0  74425-4 0  9994,2 52375  53.2172  32.6686 0001217  89.4543 270.6589 15.08840295124331,6917.879,95.438,540.586,538.903,0.0
52375.0,STARLINK-3785,PAYLOAD,2024-07-12 12:29:35,15.08840033,0.000161,53.2163,25.8298,88.0629,272.0547,7.3974e-05,8.89e-06,0.0,0 STARLINK-3785,1 52375U 22045AW  24194.52055426  .00000889  00000-0  73974-4 0  9993,2 52375  53.2163  25.8298 0001610  88.0629 272.0547 15.08840033124566,6917.88,95.438,540.859,538.632,0.0
52375.0,STARLINK-3785,PAYLOAD,2024-07-12 20:26:31,15.08845433,0.0001084,53.2163,24.3422,93.1654,266.9462,0.00021337,3.11e-05,0.0,0 STARLINK-3785,1 52375U 22045AW  24194.85175207  .00003110  00000-0  21337-3 0  9994,2 52375  53.2163  24.3422 0001084  93.1654 266.9462 15.08845433124612,6917.864,95.437,540.479,538.979,0.0
52375.0,STARLINK-3785,PAYLOAD,2024-07-13 12:20:23,15.08833725,0.0001276,53.2175,21.3659,102.4386,257.6749,-9.6835e-05,-1.828e-05,0.0,0 STARLINK-3785,1 52375U 22045AW  24195.51415572 -.00001828  00000-0 -96835-4 0  9992,2 52375  53.2175  21.3659 0001276 102.4386 257.6749 15.08833725124710,6917.9,95.438,540.647,538.882,0.0
52375.0,STARLINK-3785,PAYLOAD,2024-07-13 18:41:55,15.08838214,0.000118,53.216,20.1789,98.9376,261.175,9.8428e-05,1.279e-05,0.0,0 STARLINK-3785,1 52375U 22045AW  24195.77911410  .00001279  00000-0  98428-4 0  9990,2 52375  53.2160  20.1789 0001180  98.9376 261.1750 15.08838214124751,6917.886,95.438,540.567,538.935,0.0
52375.0,STARLINK-3785,PAYLOAD,2024-07-13 21:52:41,15.08844741,0.0001243,53.2171,19.5835,100.9283,259.1849,0.00036216,5.481e-05,0.0,0 STARLINK-3785,1 52375U 22045AW  24195.91159368  .00005481  00000-0  36216-3 0  9997,2 52375  53.2171  19.5835 0001243 100.9283 259.1849 15.08844741124778,6917.866,95.437,540.591,538.871,0.0
52375.0,STARLINK-3785,PAYLOAD,2024-07-14 05:49:37,15.08853052,0.0001224,53.2172,18.097,100.193,259.92,0.0006494,0.00010066,0.0,0 STARLINK-3785,1 52375U 22045AW  24196.24279197  .00010066  00000-0  64940-3 0  9997,2 52375  53.2172  18.0970 0001224 100.1930 259.9200 15.08853052124823,6917.84,95.437,540.552,538.859,0.0
52375.0,STARLINK-3785,PAYLOAD,2024-07-14 18:32:42,15.08843583,0.0001463,53.2166,15.7184,96.1871,263.9288,0.00028895,4.314e-05,0.0,0 STARLINK-3785,1 52375U 22045AW  24196.77271448  .00004314  00000-0  28895-3 0  9994,2 52375  53.2166  15.7184 0001463  96.1871 263.9288 15.08843583124908,6917.869,95.437,540.747,538.722,0.0
52375.0,STARLINK-3785,PAYLOAD,2024-07-15 12:01:57,15.08840229,0.0001276,53.2182,12.447,99.4691,260.6446,0.00024041,3.54e-05,0.0,0 STARLINK-3785,1 52375U 22045AW  24197.50135623  .00003540  00000-0  24041-3 0  9999,2 52375  53.2182  12.4470 0001276  99.4691 260.6446 15.08840229125013,6917.88,95.438,540.627,538.862,0.0
52375.0,STARLINK-3785,PAYLOAD,2024-07-15 18:23:30,15.08829866,0.0001105,53.2174,11.2586,89.9739,270.1379,7.1739e-05,8.54e-06,0.0,0 STARLINK-3785,1 52375U 22045AW  24197.76632161  .00000854  00000-0  71739-4 0  9998,2 52375  53.2174  11.2586 0001105  89.9739 270.1379 15.08829866125056,6917.911,95.438,540.541,539.012,0.0
52375.0,STARLINK-3785,PAYLOAD,2024-07-16 11:52:44,15.08834482,0.0001192,53.2176,7.9862,88.1236,271.9893,0.00011868,1.601e-05,0.0,0 STARLINK-3785,1 52375U 22045AW  24198.49495972  .00001601  00000-0  11868-3 0  9993,2 52375  53.2176   7.9862 0001192  88.1236 271.9893 15.08834482125168,6917.897,95.438,540.587,538.938,0.0
52375.0,STARLINK-3785,PAYLOAD,2024-07-16 16:38:53,15.08838173,0.0001175,53.218,7.0953,87.7821,272.3306,9.2531e-05,1.185e-05,0.0,0 STARLINK-3785,1 52375U 22045AW  24198.69367800  .00001185  00000-0  92531-4 0  9997,2 52375  53.2180   7.0953 0001175  87.7821 272.3306 15.08838173125199,6917.886,95.438,540.564,538.938,0.0
52375.0,STARLINK-3785,PAYLOAD,2024-07-17 03:46:34,15.08844599,0.0001046,53.2186,5.0126,89.5973,270.5139,0.00038993,5.924e-05,0.0,0 STARLINK-3785,1 52375U 22045AW  24199.15734775  .00005924  00000-0  38993-3 0  9994,2 52375  53.2186   5.0126 0001046  89.5973 270.5139 15.08844599125261,6917.866,95.437,540.455,539.008,0.0
52375.0,STARLINK-3785,PAYLOAD,2024-07-17 11:43:31,15.08839774,0.0002445,53.2174,3.5266,76.3018,283.8246,0.00019575,2.828e-05,0.0,0 STARLINK-3785,1 52375U 22045AW  24199.48856103  .00002828  00000-0  19575-3 0  9995,2 52375  53.2174   3.5266 0002445  76.3018 283.8246 15.08839774125315,6917.881,95.438,541.438,538.055,0.0
52375.0,STARLINK-3785,PAYLOAD,2024-07-17 14:54:18,15.08826711,0.0001531,53.2173,2.9324,80.8288,279.2878,-4.0951e-07,-2.94e-06,0.0,0 STARLINK-3785,1 52375U 22045AW  24199.62104653 -.00000294  00000-0 -40951-6 0  9999,2 52375  53.2173   2.9324 0001531  80.8288 279.2878 15.08826711125335,6917.921,95.438,540.845,538.727,0.0
52375.0,STARLINK-3785,PAYLOAD,2024-07-17 16:29:41,15.08828948,0.000143,53.2189,2.6362,92.0686,268.047,4.3007e-05,3.96e-06,0.0,0 STARLINK-3785,1 52375U 22045AW  24199.68728490  .00000396  00000-0  43007-4 0  9990,2 52375  53.2189   2.6362 0001430  92.0686 268.0470 15.08828948125345,6917.914,95.438,540.768,538.79,0.0
52375.0,STARLINK-3785,PAYLOAD,2024-07-18 03:37:22,15.08848835,0.000117,53.2186,0.5568,87.5761,272.5365,0.00024433,3.604e-05,0.0,0 STARLINK-3785,1 52375U 22045AW  24200.15095608  .00003604  00000-0  24433-3 0  9999,2 52375  53.2186   0.5568 0001170  87.5761 272.5365 15.08848835125419,6917.853,95.437,540.528,538.909,0.0
